#cP2022  3  8  0  0  0.00000000      96   u+U IGb14 FIT  GFZ                    
## 2200 172800.00000000   900.00000000 59646 0.0000000000000                    
+   50   G01G02G03G04G05G06G07G08G09G10G12G13G14G15G16G17G18                    
+        G19G20G21G22G23G24G25G26G27G28G29G30G31G32R01R02R03                    
+        R05R07R08R09R11R12R13R14R15R17R18R19R20R21R22R24 00                    
+         00 00 00 00 00 00 00 00 00 00 00 00 00 00 00 00 00                    
+         00 00 00 00 00 00 00 00 00 00 00 00 00 00 00 00 00                    
++         6  8  5  5  8  8  5  6  5  5  5  7  6  6  5  7  6                    
++         7  7  6  5  6  5  5  5  5  5  6  8  8  5 10  7  8                    
++         6  6  6  7  7  7  6  8  6  6  6 10 10  6 10  7  0                    
++         0  0  0  0  0  0  0  0  0  0  0  0  0  0  0  0  0                    
++         0  0  0  0  0  0  0  0  0  0  0  0  0  0  0  0  0                    
%c M  cc GPS ccc cccc cccc cccc cccc ccccc ccccc ccccc ccccc                    
%c cc cc ccc ccc cccc cccc cccc cccc ccccc ccccc ccccc ccccc                    
%f  1.2500000  1.025000000  0.00000000000  0.000000000000000                    
%f  0.0000000  0.000000000  0.00000000000  0.000000000000000                    
%i    0    0    0    0      0      0      0      0         0                    
%i    0    0    0    0      0      0      0      0         0                    
/* PCV:IGS14_2196 OL/AL:FES2004  NONE     YN CLK:CoN ORB:CoN                    
/*     GeoForschungsZentrum Potsdam                                             
/*                                                                              
/*                                                                              
*  2022  3  8  5  0  0.00000000                                                 
PG01  -5478.461748  17466.079054 -19393.082262    414.189063                    
PG02  21163.742315 -16052.154575   2582.718775   -651.967772                    
PG03   5165.432685  18131.869794 -18855.604281   -153.581489                    
PG04   -618.335432  26482.323650   1157.934835   -185.117390                    
PG05  11392.396423 -10769.758255  21297.158369    -73.903961                    
PG06  23302.572920  -3490.155390 -12266.716591    224.159270                    
PG07  11675.455739  11143.523943  21540.918238    314.815534                    
PG08  -6467.661423  23795.666402   9359.567012    -58.982991                    
PG09   7985.709739  22620.123711  11298.004899   -350.885081                    
PG10 -23877.874447 -11333.028271  -3765.407916   -340.484723                    
PG12   -675.043189 -17493.461595 -20278.765347   -181.599266                    
PG13  12881.977797 -17888.972282  14543.306248    273.256578                    
PG14  23234.767869  12530.313363  -3279.633376    -91.654656                    
PG15   3496.208090 -24723.262210   8168.334689    -78.458670                    
PG16 -15793.196665   5762.568899  20403.702624   -478.098971                    
PG17  13156.665044   9306.717859 -20672.022275    584.388541                    
PG18 -11024.583226 -10880.714712  21583.745124    224.783388                    
PG19  14926.216212   1013.000938 -22202.209898    128.163118                    
PG20  19376.725430  -5573.896908  17166.842672    516.396408                    
PG21 -14602.731924  18621.597383 -10704.033316    159.098482                    
PG22 -15157.910228   2786.078302 -21208.255881    224.195671                    
PG23 -19572.550650 -16617.921877   6980.765795     -4.946284                    
PG24   8349.305643 -19573.773289 -15931.484396    269.888900                    
PG25 -13926.406394 -18917.612459 -12947.885679    295.327855                    
PG26 -23396.338096  -1994.688121  12620.177968    189.042163                    
PG27 -12317.904947  15065.445308  17687.507813    146.448904                    
PG28  22682.194715   7518.188556 -10829.869695    385.236591                    
PG29  -4381.854968 -24186.909902   9943.119909   -488.762364                    
PG30  18989.519254   5010.710533  18062.078289   -517.491561                    
PG31 -24450.809418   4788.851010  -9972.451230   -167.944778                    
PG32 -14924.034732  -4808.318095 -21323.496194    -80.629449                    
PR01  -1011.231827 -19659.439549  16219.849640      7.195994                    
PR02 -11574.711336 -22639.059895  -2381.291671    511.832225                    
PR03 -14493.544284 -11215.651056 -17722.580481     52.726367                    
PR05   1231.679621  20164.463191 -15543.954392     88.975902                    
PR07  14408.381778  10422.729637  18307.779496     32.414703                    
PR08   9063.058646  -6405.331251  23027.939002    -63.916340                    
PR09  14035.912661  10234.875591  18721.225072     43.198759                    
PR11  21946.796823  -4266.673916 -12283.796368     44.074776                    
PR12   5467.409607 -10405.591492 -22616.684625     17.378803                    
PR13 -12836.736179 -10293.645035 -19514.694536    -19.169353                    
PR14 -24857.782708  -3954.739862  -4095.567473     75.157216                    
PR15 -21541.041461   4420.114271  12942.341552     97.700895                    
PR17 -12929.549609   1005.076576  21981.398056    507.731113                    
PR18 -17113.374702  15244.454438  11151.597961    109.606834                    
PR19 -13518.605663  21143.494497  -4554.887952   -180.769448                    
PR20    235.315843  14836.584775 -20723.392291    -66.300729                    
PR21  13536.446334  -2321.815360 -21488.656250   -283.580683                    
PR22  17214.585672 -15843.075245 -10301.710248   -169.202093                    
PR24  -1438.747475 -14627.161125  20864.778336     83.389797                    
EOF                                     
